OPTICUBE 04             
1 41851U 16067D   25012.90710482  .00004667  00000+0  32659-3 0  9990
2 41851  98.0856 193.3046 0018101  73.4199 286.9013 15.05671850446761
AEROCUBE 8D             
1 41852U 16067E   25012.47259839  .00009710  00000+0  53989-3 0  9990
2 41852  98.1099 200.1291 0005073 114.2790 245.8970 15.13905799446998
AEROCUBE 8C             
1 41853U 16067F   25012.48699737  .00008566  00000+0  47605-3 0  9993
2 41853  98.0927 198.2330 0007773  54.3370 305.8582 15.13950255446988
PROMETHEUS 2-1          
1 41854U 16067G   25012.51054165  .00030876  00000+0  97604-3 0  9991
2 41854  98.0906 210.2626 0009807  52.3133 307.8995 15.32705354447614
PROMETHEUS 2-3          
1 41855U 16067H   25012.58103979  .00032062  00000+0  10158-2 0  9994
2 41855  98.0848 209.6277 0008482  61.3116 298.8976 15.32637915447629
CORVUS BC2              
1 42846U 17042X   25012.88829279  .00004186  00000+0  33115-3 0  9995
2 42846  97.3665 192.8111 0014336  73.0356 287.2439 15.01052120408864
CORVUS BC1              
1 42847U 17042Y   25012.49503325  .00004890  00000+0  38448-3 0  9990
2 42847  97.3683 192.8631 0013828  51.0667 309.1788 15.01217781408821
MIRATA                  
1 43015U 17073C   25012.93456750  .00042188  00000+0  12509-2 0  9991
2 43015  97.5649 263.4998 0120284 254.5186 104.2744 15.27761456388111
MAKERSAT 0              
1 43016U 17073D   25012.60715619  .00021546  00000+0  10046-2 0  9997
2 43016  97.5427 252.6997 0163657 290.7416  67.6341 15.08700042387379
SIRION PATHFINDER-2     
1 43759U 18099B   25012.67993211  .00006245  00000+0  41762-3 0  9992
2 43759  97.5024  69.2289 0008760 298.0419  61.9922 15.07275443334015
CORVUS BC4              
1 43767U 18099K   25012.70922345  .00004931  00000+0  34158-3 0  9996
2 43767  97.4832  65.7280 0009508 359.3861   0.7353 15.06056571333886
MOVE-II                 
1 43780U 18099Y   25012.63696971  .00047401  00000+0  12971-2 0  9993
2 43780  97.4913  82.1198 0004126 329.9703  30.1304 15.37191792334840
SPACEBEE-7              
1 43816U 18099BL  25012.45775020  .00023668  00000+0  95904-3 0  9993
2 43816  97.5203  81.0419 0006768 282.1122  77.9357 15.24636165334140
SHIELDS 1               
1 43850U 18104B   25012.59485534  .00026314  00000+0  47162-3 0  9995
2 43850  85.0207 139.8389 0008563   3.4060 356.7254 15.49758550338454
SONATE                  
1 44400U 19038Q   25012.92970227  .00048455  00000+0  74039-3 0  9992
2 44400  97.7106  25.1761 0013579  75.7459 284.5301 15.54165829306411
DUCHIFAT-3              
1 44854U 19089C   25012.88418381  .00029145  00000+0  94450-3 0  9998
2 44854  36.9470 203.3253 0010183  41.1797 318.9722 15.31114492280256
M2 PATHFINDER           
1 45727U 20037E   25012.44629431  .00005331  00000+0  43002-3 0  9993
2 45727  97.7811 194.3517 0012727 119.7777 240.4714 15.00243628247284
NETSAT-4                
1 46504U 20068U   25012.87504191  .00015630  00000+0  64988-3 0  9992
2 46504  97.8300 343.2269 0008889  13.5728 346.5745 15.23849194236007
NETSAT-3                
1 46505U 20068V   25012.88284802  .00013986  00000+0  59710-3 0  9997
2 46505  97.8289 342.4713 0008810  23.2689 336.8944 15.22982615235981
NETSAT-1                
1 46506U 20068W   25012.86769272  .00011314  00000+0  53358-3 0  9990
2 46506  97.8312 341.1986 0008400  34.3412 325.8363 15.19626833235895
NETSAT-2                
1 46507U 20068X   25012.83654628  .00015021  00000+0  62838-3 0  9998
2 46507  97.8295 342.7527 0007771  39.8699 320.3106 15.23660997235946
WILDTRACKCUBE-SIMBA     
1 47941U 21022K   25012.93627301  .00024267  00000+0  73350-3 0  9994
2 47941  97.4399 275.2397 0013799 116.4500 243.8161 15.34127964210470
GRBALPHA                
1 47959U 21022AD  25012.91475593  .00051313  00000+0  99430-3 0  9994
2 47959  97.4386 279.5058 0011977  99.6542 260.6062 15.47465056209577
BEESAT-8                
1 48085U 21022AP  25012.70535297  .00586932  12989-3  23013-2 0  9996
2 48085  97.4787 287.6652 0012247  90.2325 270.0349 15.86822521210280
LEDSAT                  
1 49069U 21073D   25012.75816047  .00035573  00000+0  85758-3 0  9997
2 49069  97.4118  90.3283 0013097 256.4626 103.5161 15.41064786188530
ROBUSTA-1F (MTCUBE 2)   
1 53109U 22080E   25012.26954478 -.00000003  00000+0  00000+0 0  9997
2 53109  70.1269 119.4217 0008421  42.6224 317.5088  6.42583972 58590
SITRO-AIS 5 (KATYS)     
1 57176U 23091L   25012.93601732  .00009996  00000+0  53213-3 0  9991
2 57176  97.5838  69.9226 0016759 119.2932 240.9977 15.15309444 85183
SITRO-AIS 6 (CHIRKIN)   
1 57192U 23091AC  25012.91659196  .00009483  00000+0  50574-3 0  9992
2 57192  97.5834  69.9328 0016519 119.2733 241.0153 15.15264145 85189
SITRO-AIS 8 (ANOKHIN)   
1 57193U 23091AD  25012.93863259  .00011246  00000+0  58344-3 0  9995
2 57193  97.5834  70.1980 0016183 119.2850 241.0002 15.16196976 85208
SITRO-AIS 7 (FARTUSHNIY)
1 57194U 23091AE  25012.93122311  .00010002  00000+0  53391-3 0  9999
2 57194  97.5835  69.9042 0016473 119.6619 240.6256 15.15219013 85184
SITRO-AIS 10 (BURDAEV)  
1 57199U 23091AK  25012.87878951  .00012931  00000+0  62363-3 0  9997
2 57199  97.5848  71.7641 0011876 105.9723 254.2820 15.18774122 85295
SITRO-AIS 9 (SHCHUKIN)  
1 57201U 23091AM  25012.88300191  .00012701  00000+0  61420-3 0  9996
2 57201  97.5844  71.7221 0011809 106.0635 254.1900 15.18685228 85295
SITRO-AIS 12 (SMIRENNIY)
1 57204U 23091AQ  25012.88451643  .00012670  00000+0  60928-3 0  9995
2 57204  97.5853  71.9419 0011768 100.7132 259.5427 15.18880985 85308
SITRO-AIS 11 (SHEFFER)  
1 57208U 23091AU  25012.91964374  .00012902  00000+0  61787-3 0  9995
2 57208  97.5848  72.0321 0011515 101.0116 259.2414 15.19023861 85313
VERONIKA                
1 58261U 23174F   25012.86558572  .00043596  00000+0  10797-2 0  9997
2 58261  97.4364  93.9139 0008024 217.7197 142.3487 15.40258340 65753
ROBUSTA-1E (ENSO)       
1 58470U 23185J   25012.89774097  .00031646  00000+0  82697-3 0  9998
2 58470  97.3982  85.1173 0008460 252.6719 107.3601 15.38680012 62201
SITRO-AIS 29            
1 59052U 24039B   25012.90674256  .00059994  00000+0  98413-3 0  9991
2 59052  97.4102 342.5374 0011508 159.4666 200.7051 15.52174380 48829
SITRO-AIS 30            
1 59053U 24039C   25012.94558526  .00061848  00000+0  10416-2 0  9994
2 59053  97.4097 342.4794 0011438 161.6264 198.5403 15.51429356 48818
SITRO-AIS 31            
1 59054U 24039D   25012.90098126  .00058445  00000+0  96499-3 0  9991
2 59054  97.4112 342.5389 0011267 163.3782 196.7842 15.52001556 48830
SITRO-AIS 33            
1 59055U 24039E   25012.94069528  .00061189  00000+0  10049-2 0  9995
2 59055  97.4100 342.6519 0011065 160.3042 199.8640 15.52142656 48833
SITRO-AIS 35            
1 59056U 24039F   25012.93266603  .00060748  00000+0  99432-3 0  9992
2 59056  97.4112 342.6563 0010927 163.1006 197.0613 15.52240022 48839
SITRO-AIS 32            
1 59057U 24039G   25012.84286320  .00058120  00000+0  96965-3 0  9990
2 59057  97.4110 342.4809 0011210 163.0572 197.1057 15.51712159 48817
SITRO-AIS 34            
1 59058U 24039H   25012.94046046  .00058312  00000+0  95996-3 0  9997
2 59058  97.4102 342.6545 0011010 160.4686 199.6990 15.52088245 48831
SITRO-AIS 36            
1 59059U 24039J   25012.91777442  .00057786  00000+0  94900-3 0  9994
2 59059  97.4096 342.6775 0010510 161.6737 198.4896 15.52164247 48832
SITRO-AIS 49            
1 59060U 24039K   25012.94358464  .00056597  00000+0  94453-3 0  9990
2 59060  97.4101 342.6487 0010951 161.3846 198.7809 15.51713812 48832
SITRO-AIS 50            
1 59061U 24039L   25012.94325058  .00061391  00000+0  98717-3 0  9999
2 59061  97.4091 342.7938 0010682 158.0875 202.0836 15.52735770 48847
SITRO-AIS 51            
1 59062U 24039M   25012.93757823  .00066385  00000+0  10585-2 0  9992
2 59062  97.4093 342.7979 0010737 158.1098 202.0616 15.52949832 48846
SITRO-AIS 52            
1 59063U 24039N   25012.91790201  .00061195  00000+0  97370-3 0  9990
2 59063  97.4106 342.8321 0010430 161.3272 198.8366 15.53033234 48849
SITRO-AIS 25            
1 59066U 24039R   25012.86679389  .00005651  00000+0  50117-3 0  9993
2 59066  95.3843 239.5904 0160832 340.3426  19.1640 14.86943739 47224
SITRO-AIS 26            
1 59067U 24039S   25012.87835913  .00005879  00000+0  52290-3 0  9998
2 59067  95.3843 239.5793 0160976 340.4158  19.0924 14.86808161 47226
SITRO-AIS 27            
1 59068U 24039T   25012.90433848  .00006552  00000+0  57897-3 0  9991
2 59068  95.3846 239.6701 0160286 339.9270  19.5693 14.87100749 47239
SITRO-AIS 28            
1 59071U 24039U   25012.89544104  .00006669  00000+0  58895-3 0  9999
2 59071  95.3846 239.6817 0160131 339.8918  19.6040 14.87141285 47235
GRBBETA                 
1 60237U 24128C   25012.83656991  .00004530  00000+0  37040-3 0  9990
2 60237  61.9914 233.8449 0035258  22.7094 337.5545 15.00362687 28011
OOV-CUBE (TUBSAT-30)    
1 60240U 24128F   25012.89796798  .00003085  00000+0  26865-3 0  9997
2 60240  61.9957 234.7541 0033662  18.3942 341.8355 14.98756780 28019
ROBUSTA-3A (MEDITERRAN*)
1 60243U 24128J   25012.87825657  .00006772  00000+0  53640-3 0  9992
2 60243  61.9885 233.9751 0033269  13.9882 346.2122 15.01051428 28027
